{
    "links": {
        "self": "http://www.neowsapp.com/rest/v1/neo/3843378?api_key=iIulBulltgU6a56xZRHN4H3l9WmuAYTsLGpBGhQ2"
    },
    "id": "3843378",
    "neo_reference_id": "3843378",
    "name": "(2019 OE2)",
    "designation": "2019 OE2",
    "nasa_jpl_url": "http://ssd.jpl.nasa.gov/sbdb.cgi?sstr=3843378",
    "absolute_magnitude_h": 24.4,
    "estimated_diameter": {
        "kilometers": {
            "estimated_diameter_min": 0.0350392641,
            "estimated_diameter_max": 0.0783501764
        },
        "meters": {
            "estimated_diameter_min": 35.0392641108,
            "estimated_diameter_max": 78.3501764334
        },
        "miles": {
            "estimated_diameter_min": 0.0217723826,
            "estimated_diameter_max": 0.0486845275
        },
        "feet": {
            "estimated_diameter_min": 114.9582192654,
            "estimated_diameter_max": 257.0543928497
        }
    },
    "is_potentially_hazardous_asteroid": false,
    "close_approach_data": [
        {
            "close_approach_date": "2009-07-29",
            "close_approach_date_full": "2009-Jul-29 20:17",
            "epoch_date_close_approach": 1248898620000,
            "relative_velocity": {
                "kilometers_per_second": "4.369815731",
                "kilometers_per_hour": "15731.3366314312",
                "miles_per_hour": "9774.840808569"
            },
            "miss_distance": {
                "astronomical": "0.1924176121",
                "lunar": "74.8504511069",
                "kilometers": "28785264.920646227",
                "miles": "17886334.2213508526"
            },
            "orbiting_body": "Earth"
        },
        {
            "close_approach_date": "2019-07-30",
            "close_approach_date_full": "2019-Jul-30 11:29",
            "epoch_date_close_approach": 1564486140000,
            "relative_velocity": {
                "kilometers_per_second": "4.2451541214",
                "kilometers_per_hour": "15282.5548369589",
                "miles_per_hour": "9495.9852541093"
            },
            "miss_distance": {
                "astronomical": "0.1821949784",
                "lunar": "70.8738465976",
                "kilometers": "27255980.693336008",
                "miles": "16936081.0663245904"
            },
            "orbiting_body": "Earth"
        }
    ],
    "orbital_data": {
        "orbit_id": "3",
        "orbit_determination_date": "2019-08-21 05:18:45",
        "first_observation_date": "2019-07-26",
        "last_observation_date": "2019-08-20",
        "data_arc_in_days": 25,
        "observations_used": 18,
        "orbit_uncertainty": "7",
        "minimum_orbit_intersection": ".182725",
        "jupiter_tisserand_invariant": "3.491",
        "epoch_osculation": "2459000.5",
        "eccentricity": ".4628977713337979",
        "semi_major_axis": "2.229426456474462",
        "inclination": "4.214592439100889",
        "ascending_node_longitude": "304.6597939310756",
        "orbital_period": "1215.872827026286",
        "perihelion_distance": "1.197429918419827",
        "perihelion_argument": "3.37721489265728",
        "aphelion_distance": "3.261422994529097",
        "perihelion_time": "2458696.681545456964",
        "mean_anomaly": "89.95566082597242",
        "mean_motion": ".2960835969008929",
        "equinox": "J2000",
        "orbit_class": {
            "orbit_class_type": "AMO",
            "orbit_class_description": "Near-Earth asteroid orbits similar to that of 1221 Amor",
            "orbit_class_range": "1.017 AU < q (perihelion) < 1.3 AU"
        }
    },
    "is_sentry_object": false
}